[{"OBJECT_NAME":"STARLINK-30436","OBJECT_ID":"2023-144S","EPOCH":"2026-03-09T16:00:03.000096","MEAN_MOTION":15.27577698,"ECCENTRICITY":0.00015784,"INCLINATION":43.0005,"RA_OF_ASC_NODE":285.1072,"ARG_OF_PERICENTER":260.0887,"MEAN_ANOMALY":201.0081,"EPHEMERIS_TYPE":0,"CLASSIFICATION_TYPE":"U","NORAD_CAT_ID":57880,"ELEMENT_SET_NO":999,"REV_AT_EPOCH":574,"BSTAR":0.0001270346,"MEAN_MOTION_DOT":3.235e-5,"MEAN_MOTION_DDOT":0},{"OBJECT_NAME":"BANDWAGON-4 OBJECT P","OBJECT_ID":"2025-248P","EPOCH":"2026-03-08T23:32:23.805312","MEAN_MOTION":15.24098352,"ECCENTRICITY":0.00120788,"INCLINATION":45.4037,"RA_OF_ASC_NODE":295.4322,"ARG_OF_PERICENTER":209.3167,"MEAN_ANOMALY":150.7044,"EPHEMERIS_TYPE":0,"CLASSIFICATION_TYPE":"U","NORAD_CAT_ID":66306,"ELEMENT_SET_NO":999,"REV_AT_EPOCH":1929,"BSTAR":0.00092291021,"MEAN_MOTION_DOT":0.00022647,"MEAN_MOTION_DDOT":0}]
